{"type": "FeatureCollection", "features": [ {"type": "Feature", "properties": {"norad_id": 66052, "name": "HRC MONOBLOCK CAMERA", "group": "stations", "lat": -3.0405863798608994, "lon": 98.17018485970412, "alt_km": 405.3600412673559, "timestamp": "2025-12-20T22:39:09.437588+00:00", "meta": {"OBJECT_NAME": "HRC MONOBLOCK CAMERA", "OBJECT_ID": "1998-067XR", "EPOCH": "2025-12-20T11:52:12.970848", "MEAN_MOTION": 15.54656464, "ECCENTRICITY": 0.00024641, "INCLINATION": 51.6308, "RA_OF_ASC_NODE": 102.825, "ARG_OF_PERICENTER": 220.8988, "MEAN_ANOMALY": 139.1819, "EPHEMERIS_TYPE": 0, "CLASSIFICATION_TYPE": "U", "NORAD_CAT_ID": 66052, "ELEMENT_SET_NO": 999, "REV_AT_EPOCH": 1004, "BSTAR": 0.00040451912, "MEAN_MOTION_DOT": 0.00026911, "MEAN_MOTION_DDOT": 0}, "tle": {"line1": "1 66052U 98067XR  25354.49459457  .00026911  00000+0  40452-3 0  9991", "line2": "2 66052  51.6308 102.8250 0002464 220.8988 139.1819 15.54656464 10048"}}, "geometry": {"type": "Point", "coordinates": [98.17018485970412, -3.0405863798608994]}}, {"type": "Feature", "properties": {"norad_id": 66174, "name": "HTV-X1", "group": "stations", "lat": 48.50748209835574, "lon": -141.74909655883476, "alt_km": 413.1008497435905, "timestamp": "2025-12-20T22:39:09.437597+00:00", "meta": {"OBJECT_NAME": "HTV-X1", "OBJECT_ID": "2025-241A", "EPOCH": "2025-12-20T14:27:14.498496", "MEAN_MOTION": 15.49685042, "ECCENTRICITY": 0.00031934, "INCLINATION": 51.6321, "RA_OF_ASC_NODE": 103.5427, "ARG_OF_PERICENTER": 277.2005, "MEAN_ANOMALY": 82.862, "EPHEMERIS_TYPE": 0, "CLASSIFICATION_TYPE": "U", "NORAD_CAT_ID": 66174, "ELEMENT_SET_NO": 999, "REV_AT_EPOCH": 51, "BSTAR": 0.00012983891, "MEAN_MOTION_DOT": 6.881e-05, "MEAN_MOTION_DDOT": 0}, "tle": {"line1": "1 66174U 25241A   25354.60225114  .00006881  00000+0  12984-3 0  9997", "line2": "2 66174  51.6321 103.5427 0003193 277.2005  82.8620 15.49685042   511"}}, "geometry": {"type": "Point", "coordinates": [-141.74909655883476, 48.50748209835574]}}, {"type": "Feature", "properties": {"norad_id": 66515, "name": "SZ-21 MODULE", "group": "stations", "lat": -2.413115285251443, "lon": 148.7165028510029, "alt_km": 381.23737752683064, "timestamp": "2025-12-20T22:39:09.437606+00:00", "meta": {"OBJECT_NAME": "SZ-21 MODULE", "OBJECT_ID": "2025-246C", "EPOCH": "2025-12-20T00:23:58.587648", "MEAN_MOTION": 15.62845969, "ECCENTRICITY": 0.00056139, "INCLINATION": 41.4774, "RA_OF_ASC_NODE": 331.6436, "ARG_OF_PERICENTER": 298.6843, "MEAN_ANOMALY": 61.3432, "EPHEMERIS_TYPE": 0, "CLASSIFICATION_TYPE": "U", "NORAD_CAT_ID": 66515, "ELEMENT_SET_NO": 999, "REV_AT_EPOCH": 558, "BSTAR": 0.00022500266, "MEAN_MOTION_DOT": 0.00020613, "MEAN_MOTION_DDOT": 0}, "tle": {"line1": "1 66515U 25246C   25354.01665032  .00020613  00000+0  22500-3 0  9997", "line2": "2 66515  41.4774 331.6436 0005613 298.6843  61.3432 15.62845969  5585"}}, "geometry": {"type": "Point", "coordinates": [148.7165028510029, -2.413115285251443]}}, {"type": "Feature", "properties": {"norad_id": 66645, "name": "SHENZHOU-22", "group": "stations", "lat": 2.305972064540966, "lon": 144.27266005926543, "alt_km": 386.91985736244806, "timestamp": "2025-12-20T22:39:09.437615+00:00", "meta": {"OBJECT_NAME": "SHENZHOU-22", "OBJECT_ID": "2025-272A", "EPOCH": "2025-12-20T09:36:17.868384", "MEAN_MOTION": 15.59501485, "ECCENTRICITY": 0.00077102, "INCLINATION": 41.4685, "RA_OF_ASC_NODE": 330.1895, "ARG_OF_PERICENTER": 98.1704, "MEAN_ANOMALY": 262.0009, "EPHEMERIS_TYPE": 0, "CLASSIFICATION_TYPE": "U", "NORAD_CAT_ID": 66645, "ELEMENT_SET_NO": 999, "REV_AT_EPOCH": 26519, "BSTAR": 0.00021960295, "MEAN_MOTION_DOT": 0.00017645, "MEAN_MOTION_DDOT": 0}, "tle": {"line1": "1 66645U 25272A   25354.40020681  .00017645  00000+0  21960-3 0  9998", "line2": "2 66645  41.4685 330.1895 0007710  98.1704 262.0009 15.59501485265195"}}, "geometry": {"type": "Point", "coordinates": [144.27266005926543, 2.305972064540966]}}, {"type": "Feature", "properties": {"norad_id": 66664, "name": "SOYUZ-MS 28", "group": "stations", "lat": 48.50748146724752, "lon": -141.74909399863566, "alt_km": 413.1008498232377, "timestamp": "2025-12-20T22:39:09.437625+00:00", "meta": {"OBJECT_NAME": "SOYUZ-MS 28", "OBJECT_ID": "2025-275A", "EPOCH": "2025-12-20T14:27:14.498496", "MEAN_MOTION": 15.49685042, "ECCENTRICITY": 0.00031934, "INCLINATION": 51.6321, "RA_OF_ASC_NODE": 103.5427, "ARG_OF_PERICENTER": 277.2005, "MEAN_ANOMALY": 82.862, "EPHEMERIS_TYPE": 0, "CLASSIFICATION_TYPE": "U", "NORAD_CAT_ID": 66664, "ELEMENT_SET_NO": 999, "REV_AT_EPOCH": 128, "BSTAR": 0.00012983891, "MEAN_MOTION_DOT": 6.881e-05, "MEAN_MOTION_DDOT": 0}, "tle": {"line1": "1 66664U 25275A   25354.60225114  .00006881  00000+0  12984-3 0  9998", "line2": "2 66664  51.6321 103.5427 0003193 277.2005  82.8620 15.49685042  1280"}}, "geometry": {"type": "Point", "coordinates": [-141.74909399863566, 48.50748146724752]}}, {"type": "Feature", "properties": {"norad_id": 66906, "name": "1998-067XS", "group": "stations", "lat": 6.93638748261203, "lon": -83.81401850741562, "alt_km": 412.88896941866824, "timestamp": "2025-12-20T22:39:09.437635+00:00", "meta": {"OBJECT_NAME": "1998-067XS", "OBJECT_ID": "1998-067XS", "EPOCH": "2025-12-20T11:05:35.991168", "MEAN_MOTION": 15.50962254, "ECCENTRICITY": 0.00030029, "INCLINATION": 51.6311, "RA_OF_ASC_NODE": 104.1082, "ARG_OF_PERICENTER": 237.5, "MEAN_ANOMALY": 122.5699, "EPHEMERIS_TYPE": 0, "CLASSIFICATION_TYPE": "U", "NORAD_CAT_ID": 66906, "ELEMENT_SET_NO": 999, "REV_AT_EPOCH": 281, "BSTAR": 0.00037246497, "MEAN_MOTION_DOT": 0.00021596, "MEAN_MOTION_DDOT": 0}, "tle": {"line1": "1 66906U 98067XS  25354.46222212  .00021596  00000+0  37246-3 0  9994", "line2": "2 66906  51.6311 104.1082 0003002 237.5000 122.5699 15.50962254  2818"}}, "geometry": {"type": "Point", "coordinates": [-83.81401850741562, 6.93638748261203]}}, {"type": "Feature", "properties": {"norad_id": 66907, "name": "1998-067XT", "group": "stations", "lat": -30.86334504527733, "lon": -50.128355498545325, "alt_km": 411.7328831989289, "timestamp": "2025-12-20T22:39:09.437644+00:00", "meta": {"OBJECT_NAME": "1998-067XT", "OBJECT_ID": "1998-067XT", "EPOCH": "2025-12-19T11:42:50.767776", "MEAN_MOTION": 15.52255247, "ECCENTRICITY": 0.0003998, "INCLINATION": 51.6306, "RA_OF_ASC_NODE": 108.8528, "ARG_OF_PERICENTER": 265.7173, "MEAN_ANOMALY": 94.336, "EPHEMERIS_TYPE": 0, "CLASSIFICATION_TYPE": "U", "NORAD_CAT_ID": 66907, "ELEMENT_SET_NO": 999, "REV_AT_EPOCH": 266, "BSTAR": 0.00077339, "MEAN_MOTION_DOT": 0.00047666, "MEAN_MOTION_DDOT": 0}, "tle": {"line1": "1 66907U 98067XT  25353.48808759  .00047666  00000+0  77339-3 0  9995", "line2": "2 66907  51.6306 108.8528 0003998 265.7173  94.3360 15.52255247  2660"}}, "geometry": {"type": "Point", "coordinates": [-50.128355498545325, -30.86334504527733]}}, {"type": "Feature", "properties": {"norad_id": 66908, "name": "1998-067XU", "group": "stations", "lat": -34.00089542360615, "lon": -46.09168763562232, "alt_km": 411.5675960495719, "timestamp": "2025-12-20T22:39:09.437653+00:00", "meta": {"OBJECT_NAME": "1998-067XU", "OBJECT_ID": "1998-067XU", "EPOCH": "2025-12-20T13:57:38.963808", "MEAN_MOTION": 15.52465703, "ECCENTRICITY": 0.00039229, "INCLINATION": 51.6312, "RA_OF_ASC_NODE": 103.4063, "ARG_OF_PERICENTER": 272.2862, "MEAN_ANOMALY": 87.7679, "EPHEMERIS_TYPE": 0, "CLASSIFICATION_TYPE": "U", "NORAD_CAT_ID": 66908, "ELEMENT_SET_NO": 999, "REV_AT_EPOCH": 283, "BSTAR": 0.00073917994, "MEAN_MOTION_DOT": 0.00045874, "MEAN_MOTION_DDOT": 0}, "tle": {"line1": "1 66908U 98067XU  25354.58170097  .00045874  00000+0  73918-3 0  9993", "line2": "2 66908  51.6312 103.4063 0003922 272.2862  87.7679 15.52465703  2836"}}, "geometry": {"type": "Point", "coordinates": [-46.09168763562232, -34.00089542360615]}}, {"type": "Feature", "properties": {"norad_id": 66909, "name": "SILVERSAT", "group": "stations", "lat": -37.820908354073374, "lon": -40.45639189725159, "alt_km": 411.16692354406223, "timestamp": "2025-12-20T22:39:09.437662+00:00", "meta": {"OBJECT_NAME": "SILVERSAT", "OBJECT_ID": "1998-067XV", "EPOCH": "2025-12-19T13:13:09.424128", "MEAN_MOTION": 15.5251652, "ECCENTRICITY": 0.0003839, "INCLINATION": 51.6306, "RA_OF_ASC_NODE": 108.5226, "ARG_OF_PERICENTER": 268.696, "MEAN_ANOMALY": 91.359, "EPHEMERIS_TYPE": 0, "CLASSIFICATION_TYPE": "U", "NORAD_CAT_ID": 66909, "ELEMENT_SET_NO": 999, "REV_AT_EPOCH": 267, "BSTAR": 0.00079912, "MEAN_MOTION_DOT": 0.00049748, "MEAN_MOTION_DDOT": 0}, "tle": {"line1": "1 66909U 98067XV  25353.55080352  .00049748  00000+0  79912-3 0  9998", "line2": "2 66909  51.6306 108.5226 0003839 268.6960  91.3590 15.52516520  2671"}}, "geometry": {"type": "Point", "coordinates": [-40.45639189725159, -37.820908354073374]}}, {"type": "Feature", "properties": {"norad_id": 66910, "name": "1998-067XW", "group": "stations", "lat": -43.53326980805725, "lon": -29.602892815091767, "alt_km": 410.4733673314622, "timestamp": "2025-12-20T22:39:09.437673+00:00", "meta": {"OBJECT_NAME": "1998-067XW", "OBJECT_ID": "1998-067XW", "EPOCH": "2025-12-20T13:53:35.349504", "MEAN_MOTION": 15.52622364, "ECCENTRICITY": 0.00042741, "INCLINATION": 51.6309, "RA_OF_ASC_NODE": 103.387, "ARG_OF_PERICENTER": 249.6033, "MEAN_ANOMALY": 110.4498, "EPHEMERIS_TYPE": 0, "CLASSIFICATION_TYPE": "U", "NORAD_CAT_ID": 66910, "ELEMENT_SET_NO": 999, "REV_AT_EPOCH": 283, "BSTAR": 0.00071890575, "MEAN_MOTION_DOT": 0.00044854, "MEAN_MOTION_DDOT": 0}, "tle": {"line1": "1 66910U 98067XW  25354.57888136  .00044854  00000+0  71891-3 0  9990", "line2": "2 66910  51.6309 103.3870 0004274 249.6033 110.4498 15.52622364  2830"}}, "geometry": {"type": "Point", "coordinates": [-29.602892815091767, -43.53326980805725]}}]}